OPS 7218 (TRANSIT 16)   
1 02807U 67048A   24193.00712042  .00000133  00000+0  19162-3 0  9995
2 02807  89.6715  11.0132 0020407 173.5719 359.0236 13.50528818812605
OPS 4947 (TRANSIT 17)   
1 02965U 67092A   24192.41368101  .00000149  00000+0  20547-3 0  9992
2 02965  89.2298  64.5643 0046377 308.8017 225.1287 13.53246929800597
OPS 7034 (TRANSIT 18)   
1 03133U 68012A   24192.51286843  .00000160  00000+0  22926-3 0  9992
2 03133  90.0223 272.4916 0072680 236.4864 134.0488 13.51368981498920
NNSS 19 (TRANSIT 19)    
1 04507U 70067A   24192.19088263  .00000129  00000+0  16901-3 0  9992
2 04507  89.9676 235.2047 0172188   2.0494 358.1325 13.51079582651923
NNSS 20 (TRANSIT 20)    
1 06909U 73081A   24192.19870848  .00000253  00000+0  24982-3 0  9993
2 06909  89.8362 263.6088 0155073 198.0780 161.4833 13.71058762732276
TRANSAT                 
1 10457U 77106A   24192.70912654  .00000109  00000+0  15846-3 0  9996
2 10457  89.6539  97.1175 0023263 252.8201 135.1928 13.48818310297335
NOVA 1                  
1 12458U 81044A   24192.51582759  .00000107  00000+0  23232-3 0  9999
2 12458  89.8662  98.6209 0016172  95.6542  77.5322 13.23177564 83065
NOVA 3                  
1 15362U 84110A   24193.63722125  .00000097  00000+0  21112-3 0  9993
2 15362  90.1160  74.7057 0030964 323.4941  94.1911 13.22948379918353
OSCAR 30                
1 15935U 85066A   24193.29091478  .00000132  00000+0  21884-3 0  9998
2 15935  90.1795  91.1487 0169834 108.9665   5.7733 13.35925208895175
OSCAR 24                
1 15936U 85066B   24193.22254539  .00000132  00000+0  21935-3 0  9998
2 15936  90.1844  83.1274 0170555 115.2996   8.0427 13.35784816897071
POLAR BEAR              
1 17070U 86088A   24193.61232046  .00000116  00000+0  10909-3 0  9997
2 17070  89.6015 204.7244 0037280 245.3010 239.3589 13.75064164888442
OSCAR 27                
1 18361U 87080A   24193.58750474  .00000097  00000+0  14957-3 0  9995
2 18361  90.3597  60.2736 0102136 271.7087  87.2365 13.44743039805791
OSCAR 29                
1 18362U 87080B   24193.57396119  .00000082  00000+0  12459-3 0  9996
2 18362  90.3611  60.6826 0104025 294.0133 128.2793 13.44306358805343
OSCAR 23                
1 19070U 88033A   24193.51953005  .00000098  00000+0  18094-3 0  9997
2 19070  90.3140   0.3483 0189538 183.8116 241.1637 13.27661385753636
OSCAR 32                
1 19071U 88033B   24193.55817355  .00000121  00000+0  22588-3 0  9999
2 19071  90.3144   0.4572 0188380 171.0087 233.2520 13.27834746753750
NOVA 2                  
1 19223U 88052A   24193.60126444  .00000066  00000+0  13589-3 0  9996
2 19223  89.9822  79.1949 0031052   7.6870  59.8703 13.22847652740840
OSCAR 25                
1 19419U 88074A   24193.57902703  .00000107  00000+0  17004-3 0  9995
2 19419  90.0177  18.7937 0094295 287.8381 137.0966 13.42465695756747
OSCAR 31                
1 19420U 88074B   24193.59257801  .00000072  00000+0  10956-3 0  9991
2 19420  90.0192  19.0636 0092490 281.8394 144.3227 13.42453978756853
